[{"OBJECT_NAME":"STARLINK-5018","OBJECT_ID":"2022-119AV","EPOCH":"2026-03-09T22:00:04.282272","MEAN_MOTION":15.08835009,"ECCENTRICITY":0.00013169,"INCLINATION":53.2174,"RA_OF_ASC_NODE":313.4778,"ARG_OF_PERICENTER":87.5613,"MEAN_ANOMALY":272.553,"EPHEMERIS_TYPE":0,"CLASSIFICATION_TYPE":"U","NORAD_CAT_ID":53929,"ELEMENT_SET_NO":999,"REV_AT_EPOCH":19185,"BSTAR":-6.9303324e-5,"MEAN_MOTION_DOT":-1.391e-5,"MEAN_MOTION_DDOT":0},{"OBJECT_NAME":"NOAA 17 DEB","OBJECT_ID":"2002-032DT","EPOCH":"2026-03-08T22:47:54.624192","MEAN_MOTION":15.08678856,"ECCENTRICITY":0.0018728,"INCLINATION":98.77,"RA_OF_ASC_NODE":121.3607,"ARG_OF_PERICENTER":298.7191,"MEAN_ANOMALY":61.2152,"EPHEMERIS_TYPE":0,"CLASSIFICATION_TYPE":"U","NORAD_CAT_ID":49489,"ELEMENT_SET_NO":999,"REV_AT_EPOCH":24229,"BSTAR":0.0068247859,"MEAN_MOTION_DOT":0.00108865,"MEAN_MOTION_DDOT":0}]
